ONEWEB-0058             
1 45161U 20008AG  26062.53189626 -.00000191  00000+0 -58273-3 0  9993
2 45161  87.8759  57.3195 0001973  96.1037 264.0315 13.10369645294586
ONEWEB-0059             
1 45162U 20008AH  26063.06294093  .00000139  00000+0  36314-3 0  9990
2 45162  87.8759  57.2138 0001806  92.3443 267.7891 13.10369912294550
ONEWEB-0062             
1 45163U 20008AJ  26063.01230274 -.00000609  00000+0 -17800-2 0  9999
2 45163  87.8774  57.2060 0002105  97.8884 262.2482 13.10374396294417
ONEWEB-0065             
1 45164U 20008AK  26063.04289527  .00000696  00000+0  19561-2 0  9998
2 45164  87.8764  57.2089 0001808  76.5930 283.5398 13.10374070294111
ONEWEB-0066             
1 45424U 20020A   26063.00975769  .00000601  00000+0  16598-2 0  9990
2 45424  87.8859  41.9800 0001716  87.9327 272.1998 13.11414998288893
ONEWEB-0067             
1 45425U 20020B   26062.43681354 -.00000407  00000+0 -11830-2 0  9991
2 45425  87.8866  42.0027 0001683  79.9552 280.1766 13.11417422288874
ONEWEB-0080             
1 45426U 20020C   26062.44598470 -.00000363  00000+0 -10613-2 0  9998
2 45426  87.8858  42.0899 0002094  92.1895 267.9473 13.11418772288841
ONEWEB-0090             
1 45427U 20020D   26062.92342550  .00000523  00000+0  14399-2 0  9999
2 45427  87.8855  41.9959 0001892  84.9176 275.2168 13.11416201288871
ONEWEB-0061             
1 45428U 20020E   26062.95535677 -.00000383  00000+0 -11166-2 0  9992
2 45428  87.8857  41.9752 0001843  85.9307 274.2031 13.11416127288839
ONEWEB-0081             
1 45429U 20020F   26063.01313993  .00000398  00000+0  10867-2 0  9997
2 45429  87.8861  41.9790 0001635  82.6372 277.4942 13.11413841288951
ONEWEB-0069             
1 45430U 20020G   26062.84953709  .00000573  00000+0  15808-2 0  9999
2 45430  87.8854  42.0067 0001758  84.8663 275.2665 13.11417302288861
ONEWEB-0031             
1 45431U 20020H   26062.44006665 -.00000289  00000+0 -85208-3 0  9994
2 45431  87.8846  42.1065 0001998  88.6239 271.5118 13.11417568288797
ONEWEB-0027             
1 45432U 20020J   26062.83053962  .00000060  00000+0  12179-3 0  9992
2 45432  87.9150  26.7637 0002253  81.9174 278.2213 13.17647362292483
ONEWEB-0064             
1 45433U 20020K   26062.43837117 -.00000344  00000+0 -10068-2 0  9992
2 45433  87.8847  42.0975 0002024  85.6855 274.4504 13.11416801288825
ONEWEB-0018             
1 45434U 20020L   26062.85207945  .00000529  00000+0  14554-2 0  9996
2 45434  87.8858  42.0112 0001765  90.4873 269.6457 13.11416266288824
ONEWEB-0083             
1 45435U 20020M   26062.84275398  .00000423  00000+0  11586-2 0  9998
2 45435  87.8860  42.0005 0001890  85.0568 275.0776 13.11416624288866
ONEWEB-0095             
1 45436U 20020N   26062.45207650  .00000191  00000+0  50278-3 0  9996
2 45436  87.8859  42.0872 0002385  67.9800 292.1582 13.11419205288813
